ARABSAT-5C              
1 37810U 11049B   17346.17965977  .00000118  00000-0  00000+0 0  9995
2 37810   0.0613   8.1510 0002792 248.8742 268.7200  1.00271782 22738
